{
    "links": {
        "self": "http://www.neowsapp.com/rest/v1/neo/3758848?api_key=iIulBulltgU6a56xZRHN4H3l9WmuAYTsLGpBGhQ2"
    },
    "id": "3758848",
    "neo_reference_id": "3758848",
    "name": "(2016 RV)",
    "designation": "2016 RV",
    "nasa_jpl_url": "http://ssd.jpl.nasa.gov/sbdb.cgi?sstr=3758848",
    "absolute_magnitude_h": 22.5,
    "estimated_diameter": {
        "kilometers": {
            "estimated_diameter_min": 0.0840533402,
            "estimated_diameter_max": 0.1879489824
        },
        "meters": {
            "estimated_diameter_min": 84.0533402073,
            "estimated_diameter_max": 187.9489824394
        },
        "miles": {
            "estimated_diameter_min": 0.0522283081,
            "estimated_diameter_max": 0.1167860472
        },
        "feet": {
            "estimated_diameter_min": 275.7655606856,
            "estimated_diameter_max": 616.6305395464
        }
    },
    "is_potentially_hazardous_asteroid": false,
    "close_approach_data": [
        {
            "close_approach_date": "2012-07-23",
            "close_approach_date_full": "2012-Jul-23 05:37",
            "epoch_date_close_approach": 1343021820000,
            "relative_velocity": {
                "kilometers_per_second": "14.2337656598",
                "kilometers_per_hour": "51241.5563753736",
                "miles_per_hour": "31839.5104044648"
            },
            "miss_distance": {
                "astronomical": "0.337084104",
                "lunar": "131.125716456",
                "kilometers": "50427063.96925848",
                "miles": "31333924.577107824"
            },
            "orbiting_body": "Earth"
        },
        {
            "close_approach_date": "2014-11-09",
            "close_approach_date_full": "2014-Nov-09 13:48",
            "epoch_date_close_approach": 1415540880000,
            "relative_velocity": {
                "kilometers_per_second": "5.5870512507",
                "kilometers_per_hour": "20113.3845026941",
                "miles_per_hour": "12497.674942799"
            },
            "miss_distance": {
                "astronomical": "1.5904589781",
                "lunar": "618.6885424809",
                "kilometers": "237929275.446136647",
                "miles": "147842396.2192218486"
            },
            "orbiting_body": "Juptr"
        },
        {
            "close_approach_date": "2016-08-30",
            "close_approach_date_full": "2016-Aug-30 00:30",
            "epoch_date_close_approach": 1472517000000,
            "relative_velocity": {
                "kilometers_per_second": "16.4583712662",
                "kilometers_per_hour": "59250.1365581404",
                "miles_per_hour": "36815.7306852512"
            },
            "miss_distance": {
                "astronomical": "0.0767607121",
                "lunar": "29.8599170069",
                "kilometers": "11483239.029843227",
                "miles": "7135353.8623894526"
            },
            "orbiting_body": "Earth"
        },
        {
            "close_approach_date": "2020-09-14",
            "close_approach_date_full": "2020-Sep-14 15:28",
            "epoch_date_close_approach": 1600097280000,
            "relative_velocity": {
                "kilometers_per_second": "22.0879091901",
                "kilometers_per_hour": "79516.4730843193",
                "miles_per_hour": "49408.4440673094"
            },
            "miss_distance": {
                "astronomical": "0.3128928958",
                "lunar": "121.7153364662",
                "kilometers": "46808110.749811946",
                "miles": "29085211.3207630148"
            },
            "orbiting_body": "Earth"
        }
    ],
    "orbital_data": {
        "orbit_id": "7",
        "orbit_determination_date": "2017-04-06 08:24:14",
        "first_observation_date": "2016-09-03",
        "last_observation_date": "2016-10-07",
        "data_arc_in_days": 34,
        "observations_used": 63,
        "orbit_uncertainty": "6",
        "minimum_orbit_intersection": ".067616",
        "jupiter_tisserand_invariant": "3.080",
        "epoch_osculation": "2459000.5",
        "eccentricity": ".6042076444525694",
        "semi_major_axis": "2.537367210597127",
        "inclination": "22.35533314268558",
        "ascending_node_longitude": "159.6917422570199",
        "orbital_period": "1476.295894119772",
        "perihelion_distance": "1.00427054517105",
        "perihelion_argument": "142.3719101854913",
        "aphelion_distance": "4.070463876023203",
        "perihelion_time": "2459079.721852975745",
        "mean_anomaly": "340.6814696262006",
        "mean_motion": ".2438535536364455",
        "equinox": "J2000",
        "orbit_class": {
            "orbit_class_type": "APO",
            "orbit_class_description": "Near-Earth asteroid orbits which cross the Earth’s orbit similar to that of 1862 Apollo",
            "orbit_class_range": "a (semi-major axis) > 1.0 AU; q (perihelion) < 1.017 AU"
        }
    },
    "is_sentry_object": false
}